IRIDIUM 106             
1 41917U 17003A   25013.73863550  .00000379  00000+0  12824-3 0  9999
2 41917  86.3983 305.5947 0002249  95.0421 265.1032 14.34220235418752
IRIDIUM 103             
1 41918U 17003B   25013.51665069  .00000479  00000+0  16385-3 0  9998
2 41918  86.3983 305.5887 0001550  88.3666 271.7707 14.34219419418749
IRIDIUM 109             
1 41919U 17003C   25013.73229466  .00000051  00000+0  10986-4 0  9998
2 41919  86.3984 305.5496 0002116  78.5508 281.5926 14.34217860418742
IRIDIUM 102             
1 41920U 17003D   25013.56104181  .00000420  00000+0  14303-3 0  9993
2 41920  86.3982 305.5556 0002183  83.8201 276.3243 14.34221194418808
IRIDIUM 105             
1 41921U 17003E   25013.60155505  .00000053  00000+0  11767-4 0  9999
2 41921  86.3962 273.9596 0002003  84.7740 275.3684 14.34217259420660
IRIDIUM 104             
1 41922U 17003F   25013.71326056  .00000442  00000+0  15067-3 0  9991
2 41922  86.3984 305.5267 0001885  72.1914 287.9488 14.34219572418818
IRIDIUM 114             
1 41923U 17003G   25013.71960837  .00000465  00000+0  15912-3 0  9997
2 41923  86.3984 305.5092 0001982  86.4300 273.7122 14.34219388418790
IRIDIUM 108             
1 41924U 17003H   25013.60836246  .00000084  00000+0  23068-4 0  9991
2 41924  86.3957 273.8681 0002185  90.5632 269.5815 14.34217460420639
